ONEWEB-0018             
1 45434U 20020L   24342.48037703  .00000465  00000+0  12750-2 0  9992
2 45434  87.8890 131.9911 0001377  93.4685 266.6601 13.11417939229672
ONEWEB-0083             
1 45435U 20020M   24341.85982791  .00000126  00000+0  32019-3 0  9994
2 45435  87.8893 132.0974 0001448  98.4621 261.6671 13.11418018229627
ONEWEB-0095             
1 45436U 20020N   24342.15667586 -.00000273  00000+0 -80745-3 0  9995
2 45436  87.8888 132.0688 0001993 117.7917 242.3413 13.11421338229676
ONEWEB-0092             
1 45437U 20020P   24342.12855135 -.00000133  00000+0 -41112-3 0  9992
2 45437  87.8889 132.0612 0001713 102.2636 257.8684 13.11416733229777
ONEWEB-0085             
1 45438U 20020Q   24342.15823169 -.00000225  00000+0 -66931-3 0  9996
2 45438  87.8889 132.0627 0001425  93.5551 266.5740 13.11417535229672
ONEWEB-0096             
1 45439U 20020R   24341.78522819  .00000327  00000+0  88819-3 0  9993
2 45439  87.8892 132.1052 0001506  86.5909 273.5391 13.11418343229600
ONEWEB-0037             
1 45440U 20020S   24341.69027698 -.00000490  00000+0 -14183-2 0  9995
2 45440  87.8882 132.0977 0001550  97.2208 262.9097 13.11417070229629
ONEWEB-0042             
1 45441U 20020T   24342.15638062 -.00000284  00000+0 -83688-3 0  9999
2 45441  87.8888 132.0438 0001451  94.1004 266.0289 13.11419893229665
